[{"OBJECT_NAME":"ONEWEB-0060","OBJECT_ID":"2020-020AH","EPOCH":"2026-01-10T20:22:36.604128","MEAN_MOTION":13.11421389,"ECCENTRICITY":0.0002129,"INCLINATION":87.8825,"RA_OF_ASC_NODE":52.3937,"ARG_OF_PERICENTER":67.7192,"MEAN_ANOMALY":292.4161,"EPHEMERIS_TYPE":0,"CLASSIFICATION_TYPE":"U","NORAD_CAT_ID":45455,"ELEMENT_SET_NO":999,"REV_AT_EPOCH":28192,"BSTAR":0.00012486175,"MEAN_MOTION_DOT":5.7e-7,"MEAN_MOTION_DDOT":0},{"OBJECT_NAME":"ONEWEB-0086","OBJECT_ID":"2020-020AJ","EPOCH":"2026-01-10T19:52:04.946592","MEAN_MOTION":13.11417304,"ECCENTRICITY":0.00013971,"INCLINATION":87.8834,"RA_OF_ASC_NODE":52.38,"ARG_OF_PERICENTER":72.465,"MEAN_ANOMALY":287.6631,"EPHEMERIS_TYPE":0,"CLASSIFICATION_TYPE":"U","NORAD_CAT_ID":45456,"ELEMENT_SET_NO":999,"REV_AT_EPOCH":28198,"BSTAR":-0.001387702,"MEAN_MOTION_DOT":-4.79e-6,"MEAN_MOTION_DDOT":0},{"OBJECT_NAME":"ONEWEB-0088","OBJECT_ID":"2020-020AK","EPOCH":"2026-01-10T19:20:21.351552","MEAN_MOTION":13.11417129,"ECCENTRICITY":0.00020443,"INCLINATION":87.8841,"RA_OF_ASC_NODE":52.3432,"ARG_OF_PERICENTER":98.0394,"MEAN_ANOMALY":262.0966,"EPHEMERIS_TYPE":0,"CLASSIFICATION_TYPE":"U","NORAD_CAT_ID":45457,"ELEMENT_SET_NO":999,"REV_AT_EPOCH":28191,"BSTAR":0.00069750533,"MEAN_MOTION_DOT":2.6e-6,"MEAN_MOTION_DDOT":0},{"OBJECT_NAME":"ONEWEB-0102","OBJECT_ID":"2020-100A","EPOCH":"2026-01-10T22:23:25.780128","MEAN_MOTION":13.12442693,"ECCENTRICITY":0.00015911,"INCLINATION":87.892,"RA_OF_ASC_NODE":21.9102,"ARG_OF_PERICENTER":83.4406,"MEAN_ANOMALY":276.6904,"EPHEMERIS_TYPE":0,"CLASSIFICATION_TYPE":"U","NORAD_CAT_ID":47258,"ELEMENT_SET_NO":999,"REV_AT_EPOCH":24410,"BSTAR":0.0010535467,"MEAN_MOTION_DOT":3.92e-6,"MEAN_MOTION_DDOT":0},{"OBJECT_NAME":"ONEWEB-0109","OBJECT_ID":"2020-100B","EPOCH":"2026-01-10T22:35:37.137120","MEAN_MOTION":13.1244238,"ECCENTRICITY":0.00016185,"INCLINATION":87.8926,"RA_OF_ASC_NODE":21.8791,"ARG_OF_PERICENTER":92.2255,"MEAN_ANOMALY":267.9059,"EPHEMERIS_TYPE":0,"CLASSIFICATION_TYPE":"U","NORAD_CAT_ID":47259,"ELEMENT_SET_NO":999,"REV_AT_EPOCH":24393,"BSTAR":0.0010784653,"MEAN_MOTION_DOT":4.01e-6,"MEAN_MOTION_DDOT":0},{"OBJECT_NAME":"ONEWEB-0110","OBJECT_ID":"2020-100C","EPOCH":"2026-01-10T23:14:38.985792","MEAN_MOTION":13.12442654,"ECCENTRICITY":0.00016448,"INCLINATION":87.8925,"RA_OF_ASC_NODE":21.8579,"ARG_OF_PERICENTER":81.4086,"MEAN_ANOMALY":278.7229,"EPHEMERIS_TYPE":0,"CLASSIFICATION_TYPE":"U","NORAD_CAT_ID":47260,"ELEMENT_SET_NO":999,"REV_AT_EPOCH":24410,"BSTAR":-0.0010026257,"MEAN_MOTION_DOT":-3.48e-6,"MEAN_MOTION_DDOT":0},{"OBJECT_NAME":"ONEWEB-0111","OBJECT_ID":"2020-100D","EPOCH":"2026-01-10T18:29:12.827904","MEAN_MOTION":13.12444958,"ECCENTRICITY":0.00018202,"INCLINATION":87.8929,"RA_OF_ASC_NODE":21.9157,"ARG_OF_PERICENTER":86.7686,"MEAN_ANOMALY":273.365,"EPHEMERIS_TYPE":0,"CLASSIFICATION_TYPE":"U","NORAD_CAT_ID":47261,"ELEMENT_SET_NO":999,"REV_AT_EPOCH":24391,"BSTAR":0.00073659021,"MEAN_MOTION_DOT":2.78e-6,"MEAN_MOTION_DDOT":0},{"OBJECT_NAME":"ONEWEB-0114","OBJECT_ID":"2020-100E","EPOCH":"2026-01-10T22:52:41.600064","MEAN_MOTION":13.12442013,"ECCENTRICITY":0.00016336,"INCLINATION":87.8929,"RA_OF_ASC_NODE":21.8744,"ARG_OF_PERICENTER":102.5931,"MEAN_ANOMALY":257.5381,"EPHEMERIS_TYPE":0,"CLASSIFICATION_TYPE":"U","NORAD_CAT_ID":47262,"ELEMENT_SET_NO":999,"REV_AT_EPOCH":24389,"BSTAR":0.00020712094,"MEAN_MOTION_DOT":8.7e-7,"MEAN_MOTION_DDOT":0},{"OBJECT_NAME":"ONEWEB-0117","OBJECT_ID":"2020-100F","EPOCH":"2026-01-10T22:40:30.327744","MEAN_MOTION":13.1244157,"ECCENTRICITY":0.000173,"INCLINATION":87.8925,"RA_OF_ASC_NODE":21.8721,"ARG_OF_PERICENTER":89.2266,"MEAN_ANOMALY":270.9061,"EPHEMERIS_TYPE":0,"CLASSIFICATION_TYPE":"U","NORAD_CAT_ID":47263,"ELEMENT_SET_NO":999,"REV_AT_EPOCH":24390,"BSTAR":0.00078662924,"MEAN_MOTION_DOT":2.96e-6,"MEAN_MOTION_DDOT":0},{"OBJECT_NAME":"ONEWEB-0118","OBJECT_ID":"2020-100G","EPOCH":"2026-01-10T23:29:18.092832","MEAN_MOTION":13.12443521,"ECCENTRICITY":0.0001896,"INCLINATION":87.8929,"RA_OF_ASC_NODE":21.8662,"ARG_OF_PERICENTER":101.1346,"MEAN_ANOMALY":258.9996,"EPHEMERIS_TYPE":0,"CLASSIFICATION_TYPE":"U","NORAD_CAT_ID":47264,"ELEMENT_SET_NO":999,"REV_AT_EPOCH":24410,"BSTAR":-0.0010729569,"MEAN_MOTION_DOT":-3.73e-6,"MEAN_MOTION_DDOT":0},{"OBJECT_NAME":"ONEWEB-0119","OBJECT_ID":"2020-100H","EPOCH":"2026-01-11T00:05:54.203712","MEAN_MOTION":13.12444876,"ECCENTRICITY":0.00017208,"INCLINATION":87.8919,"RA_OF_ASC_NODE":21.8922,"ARG_OF_PERICENTER":90.6459,"MEAN_ANOMALY":269.4866,"EPHEMERIS_TYPE":0,"CLASSIFICATION_TYPE":"U","NORAD_CAT_ID":47265,"ELEMENT_SET_NO":999,"REV_AT_EPOCH":24408,"BSTAR":0.0010021166,"MEAN_MOTION_DOT":3.73e-6,"MEAN_MOTION_DDOT":0},{"OBJECT_NAME":"ONEWEB-0120","OBJECT_ID":"2020-100J","EPOCH":"2026-01-10T22:50:27.278304","MEAN_MOTION":13.12441163,"ECCENTRICITY":0.00016932,"INCLINATION":87.8917,"RA_OF_ASC_NODE":21.9038,"ARG_OF_PERICENTER":93.6898,"MEAN_ANOMALY":266.4425,"EPHEMERIS_TYPE":0,"CLASSIFICATION_TYPE":"U","NORAD_CAT_ID":47266,"ELEMENT_SET_NO":999,"REV_AT_EPOCH":24410,"BSTAR":0.00034894311,"MEAN_MOTION_DOT":1.38e-6,"MEAN_MOTION_DDOT":0},{"OBJECT_NAME":"ONEWEB-0121","OBJECT_ID":"2020-100K","EPOCH":"2026-01-10T22:33:10.270944","MEAN_MOTION":13.12441441,"ECCENTRICITY":0.00017596,"INCLINATION":87.8925,"RA_OF_ASC_NODE":21.877,"ARG_OF_PERICENTER":83.6764,"MEAN_ANOMALY":276.4564,"EPHEMERIS_TYPE":0,"CLASSIFICATION_TYPE":"U","NORAD_CAT_ID":47267,"ELEMENT_SET_NO":999,"REV_AT_EPOCH":24401,"BSTAR":0.00096599647,"MEAN_MOTION_DOT":3.6e-6,"MEAN_MOTION_DDOT":0},{"OBJECT_NAME":"ONEWEB-0122","OBJECT_ID":"2020-100L","EPOCH":"2026-01-10T22:25:38.875008","MEAN_MOTION":13.12446225,"ECCENTRICITY":0.00015915,"INCLINATION":87.8924,"RA_OF_ASC_NODE":21.8806,"ARG_OF_PERICENTER":89.1849,"MEAN_ANOMALY":270.9462,"EPHEMERIS_TYPE":0,"CLASSIFICATION_TYPE":"U","NORAD_CAT_ID":47268,"ELEMENT_SET_NO":999,"REV_AT_EPOCH":24392,"BSTAR":0.0010933,"MEAN_MOTION_DOT":4.06e-6,"MEAN_MOTION_DDOT":0},{"OBJECT_NAME":"ONEWEB-0123","OBJECT_ID":"2020-100M","EPOCH":"2026-01-10T22:18:31.977792","MEAN_MOTION":13.12444559,"ECCENTRICITY":0.00018326,"INCLINATION":87.8919,"RA_OF_ASC_NODE":21.9056,"ARG_OF_PERICENTER":93.0891,"MEAN_ANOMALY":267.0447,"EPHEMERIS_TYPE":0,"CLASSIFICATION_TYPE":"U","NORAD_CAT_ID":47269,"ELEMENT_SET_NO":999,"REV_AT_EPOCH":24406,"BSTAR":0.0010096993,"MEAN_MOTION_DOT":3.76e-6,"MEAN_MOTION_DDOT":0},{"OBJECT_NAME":"ONEWEB-0124","OBJECT_ID":"2020-100N","EPOCH":"2026-01-10T23:53:40.755840","MEAN_MOTION":13.12445427,"ECCENTRICITY":0.00018708,"INCLINATION":87.8921,"RA_OF_ASC_NODE":21.8971,"ARG_OF_PERICENTER":86.9273,"MEAN_ANOMALY":273.2069,"EPHEMERIS_TYPE":0,"CLASSIFICATION_TYPE":"U","NORAD_CAT_ID":47270,"ELEMENT_SET_NO":999,"REV_AT_EPOCH":24395,"BSTAR":0.00014015767,"MEAN_MOTION_DOT":6.3e-7,"MEAN_MOTION_DDOT":0},{"OBJECT_NAME":"ONEWEB-0125","OBJECT_ID":"2020-100P","EPOCH":"2026-01-10T23:21:57.621312","MEAN_MOTION":13.12444477,"ECCENTRICITY":0.00020415,"INCLINATION":87.8925,"RA_OF_ASC_NODE":21.8674,"ARG_OF_PERICENTER":90.0768,"MEAN_ANOMALY":270.0595,"EPHEMERIS_TYPE":0,"CLASSIFICATION_TYPE":"U","NORAD_CAT_ID":47271,"ELEMENT_SET_NO":999,"REV_AT_EPOCH":24401,"BSTAR":-0.0011664408,"MEAN_MOTION_DOT":-4.07e-6,"MEAN_MOTION_DDOT":0},{"OBJECT_NAME":"ONEWEB-0126","OBJECT_ID":"2020-100Q","EPOCH":"2026-01-10T23:51:27.155520","MEAN_MOTION":13.12443113,"ECCENTRICITY":0.00016843,"INCLINATION":87.8928,"RA_OF_ASC_NODE":21.8862,"ARG_OF_PERICENTER":94.408,"MEAN_ANOMALY":265.7241,"EPHEMERIS_TYPE":0,"CLASSIFICATION_TYPE":"U","NORAD_CAT_ID":47272,"ELEMENT_SET_NO":999,"REV_AT_EPOCH":24408,"BSTAR":0.00010161518,"MEAN_MOTION_DOT":4.9e-7,"MEAN_MOTION_DDOT":0},{"OBJECT_NAME":"ONEWEB-0127","OBJECT_ID":"2020-100R","EPOCH":"2026-01-10T23:02:27.132864","MEAN_MOTION":13.12440673,"ECCENTRICITY":0.00016184,"INCLINATION":87.8921,"RA_OF_ASC_NODE":21.9016,"ARG_OF_PERICENTER":93.4517,"MEAN_ANOMALY":266.6796,"EPHEMERIS_TYPE":0,"CLASSIFICATION_TYPE":"U","NORAD_CAT_ID":47273,"ELEMENT_SET_NO":999,"REV_AT_EPOCH":24410,"BSTAR":-0.00045606619,"MEAN_MOTION_DOT":-1.51e-6,"MEAN_MOTION_DDOT":0},{"OBJECT_NAME":"ONEWEB-0128","OBJECT_ID":"2020-100S","EPOCH":"2026-01-10T23:34:09.056064","MEAN_MOTION":13.12442788,"ECCENTRICITY":0.00016088,"INCLINATION":87.8918,"RA_OF_ASC_NODE":21.9125,"ARG_OF_PERICENTER":81.4343,"MEAN_ANOMALY":278.6968,"EPHEMERIS_TYPE":0,"CLASSIFICATION_TYPE":"U","NORAD_CAT_ID":47274,"ELEMENT_SET_NO":999,"REV_AT_EPOCH":24412,"BSTAR":-0.00081300165,"MEAN_MOTION_DOT":-2.8e-6,"MEAN_MOTION_DDOT":0},{"OBJECT_NAME":"ONEWEB-0129","OBJECT_ID":"2020-100T","EPOCH":"2026-01-10T23:04:53.385600","MEAN_MOTION":13.12441531,"ECCENTRICITY":0.0001248,"INCLINATION":87.8929,"RA_OF_ASC_NODE":21.8742,"ARG_OF_PERICENTER":132.8619,"MEAN_ANOMALY":227.2614,"EPHEMERIS_TYPE":0,"CLASSIFICATION_TYPE":"U","NORAD_CAT_ID":47275,"ELEMENT_SET_NO":999,"REV_AT_EPOCH":24405,"BSTAR":-0.00058394419,"MEAN_MOTION_DOT":-1.97e-6,"MEAN_MOTION_DDOT":0},{"OBJECT_NAME":"ONEWEB-0130","OBJECT_ID":"2020-100U","EPOCH":"2026-01-10T23:43:55.359552","MEAN_MOTION":13.124451,"ECCENTRICITY":0.000161,"INCLINATION":87.8928,"RA_OF_ASC_NODE":21.8631,"ARG_OF_PERICENTER":89.9732,"MEAN_ANOMALY":270.1581,"EPHEMERIS_TYPE":0,"CLASSIFICATION_TYPE":"U","NORAD_CAT_ID":47276,"ELEMENT_SET_NO":999,"REV_AT_EPOCH":24402,"BSTAR":-0.00040155971,"MEAN_MOTION_DOT":-1.32e-6,"MEAN_MOTION_DDOT":0},{"OBJECT_NAME":"ONEWEB-0131","OBJECT_ID":"2020-100V","EPOCH":"2026-01-10T23:39:02.771136","MEAN_MOTION":13.12442859,"ECCENTRICITY":0.00017042,"INCLINATION":87.893,"RA_OF_ASC_NODE":21.8942,"ARG_OF_PERICENTER":89.1099,"MEAN_ANOMALY":271.0224,"EPHEMERIS_TYPE":0,"CLASSIFICATION_TYPE":"U","NORAD_CAT_ID":47277,"ELEMENT_SET_NO":999,"REV_AT_EPOCH":24406,"BSTAR":-0.00060536275,"MEAN_MOTION_DOT":-2.05e-6,"MEAN_MOTION_DDOT":0}]
